OBJECT_NAME,OBJECT_ID,EPOCH,MEAN_MOTION,ECCENTRICITY,INCLINATION,RA_OF_ASC_NODE,ARG_OF_PERICENTER,MEAN_ANOMALY,EPHEMERIS_TYPE,CLASSIFICATION_TYPE,NORAD_CAT_ID,ELEMENT_SET_NO,REV_AT_EPOCH,BSTAR,MEAN_MOTION_DOT,MEAN_MOTION_DDOT
COSMOS 2534 (758),2019-030A,2026-07-06T22:52:33.858624,2.13102353,.0013578,64.3703,191.9507,275.0853,267.8570,0,U,44299,999,5534,0,.117E-5,0
BEIDOU-3 IGSO-2 (C39),2019-035A,2026-07-06T19:29:51.622656,1.00260595,.003967,55.2502,158.6905,216.4592,321.0694,0,U,44337,999,2586,0,-.75E-6,0
GPS BIII-2  (PRN 18),2019-056A,2026-07-06T20:17:39.541056,2.00570005,.006306,55.6268,330.3626,197.9974,344.1800,0,U,44506,999,5046,0,-.7E-6,0
BEIDOU-3 M24 (C46),2019-061A,2026-07-07T02:38:01.180896,1.86229378,.0008559,54.3974,182.0557,359.0397,0.9657,0,U,44542,999,4616,0,.118E-5,0
BEIDOU-3 M23 (C45),2019-061B,2026-07-06T06:34:35.386752,1.86227560,.00058641,54.3960,182.0526,339.2587,91.9188,0,U,44543,999,4615,0,.112E-5,0
EUTELSAT 5 WEST B (EGNOS/PRN 121),2019-067A,2026-07-07T04:14:38.747040,1.00271374,.0003185,0.0658,339.5785,127.5317,236.6958,0,U,44624,999,2463,0,-.27E-6,0
BEIDOU-3 M22 (C44),2019-078A,2026-07-05T08:08:09.837600,1.86227646,.00059141,53.9186,299.1896,49.8831,310.1966,0,U,44793,999,4498,0,-.58E-6,0
BEIDOU-3 M21 (C43),2019-078B,2026-07-05T11:29:35.042784,1.86228113,.0003864,53.8912,299.1453,48.4464,311.6147,0,U,44794,999,4499,0,-.58E-6,0
COSMOS 2544 (759),2019-088A,2026-07-05T07:55:58.744992,2.13103225,.0012613,65.5747,73.1255,256.2625,103.6636,0,U,44850,999,5110,0,-.11E-6,0
BEIDOU-3 M19 (C41),2019-090A,2026-07-07T01:28:43.605984,1.86231712,.0017091,56.5756,62.1346,297.4421,241.2360,0,U,44864,999,4460,0,-.43E-6,0
BEIDOU-3 M20 (C42),2019-090B,2026-07-06T22:17:09.972096,1.86231636,.0014943,56.5768,62.1737,312.1641,226.9103,0,U,44865,999,4458,0,-.42E-6,0
BEIDOU-3 G2 (C60),2020-017A,2026-07-07T03:51:43.600320,1.00270752,.0002438,2.9021,47.6179,52.3134,323.2138,0,U,45344,999,2346,0,-.127E-5,0
COSMOS 2545 (760),2020-018A,2026-07-06T22:23:54.489120,2.13102817,.0009081,64.3422,311.7252,229.8203,130.1142,0,U,45358,999,4908,0,-.48E-6,0
BEIDOU-3 G3 (C61),2020-040A,2026-07-07T02:17:42.482976,1.00268873,.0002142,2.4931,67.4778,334.3531,28.2040,0,U,45807,999,2227,0,-.34E-5,0
GPS BIII-3  (PRN 23),2020-041A,2026-07-06T04:19:38.517024,2.00558250,.0064724,56.6823,28.2076,204.5515,154.8185,0,U,45854,999,4441,0,-.55E-6,0
GALAXY 30 (WAAS/PRN 135),2020-056C,2026-07-06T18:19:48.355968,1.00270907,.0002186,0.0206,38.7570,67.2773,328.6685,0,U,46114,999,2148,0,.52E-6,0
COSMOS 2547 (705K),2020-075A,2026-07-06T15:41:18.199104,2.13100180,.0009443,64.6011,191.8258,239.8670,120.0683,0,U,46805,999,4432,0,.115E-5,0
GPS BIII-4  (PRN 14),2020-078A,2026-07-06T15:43:33.223296,2.00564948,.0074292,53.9784,209.9892,207.6007,111.6968,0,U,46826,999,4189,0,.93E-6,0
GPS BIII-5  (PRN 11),2021-054A,2026-07-06T22:38:46.004064,2.00567735,.0026177,55.1641,331.6665,228.4644,125.3794,0,U,48859,999,3714,0,-.71E-6,0
QZS-1R (QZSS/PRN 196),2021-096A,2026-07-05T14:25:33.375072,1.00249302,.07555114,37.4964,79.3119,272.0883,281.1819,0,U,49336,999,1719,0,-.258E-5,0
GSAT0223 (GALILEO 27),2021-116A,2026-07-03T10:06:08.269056,1.70476367,.0001787,57.1558,341.2375,186.7549,176.0990,0,U,49809,999,2846,0,-.75E-6,0
GSAT0224 (GALILEO 28),2021-116B,2026-07-07T01:07:17.745888,1.70476191,.0001638,57.1547,341.1388,175.8002,4.9246,0,U,49810,999,2854,0,-.71E-6,0
COSMOS 2557 (706K),2022-075A,2026-07-05T21:06:15.547104,2.13102507,.0010592,64.2868,313.8271,272.6980,87.1931,0,U,52984,999,3111,0,-.46E-6,0
COSMOS 2559 (707K),2022-130A,2026-07-06T04:02:20.153184,2.13101697,.0012939,64.2589,313.8996,180.0995,179.9129,0,U,54031,999,2909,0,-.47E-6,0
COSMOS 2564 (761),2022-161A,2026-07-06T22:47:57.933312,2.13102000,.0012256,64.7434,192.0556,225.0919,134.8385,0,U,54377,999,2805,0,.118E-5,0
GPS BIII-6  (PRN 28),2023-009A,2026-07-07T03:27:15.945120,2.00570128,.0006222,55.1244,147.7348,319.7654,217.2991,0,U,55268,999,2564,0,.76E-6,0
BEIDOU-3 G4 (C62),2023-066A,2026-07-06T07:36:57.282624,1.00266978,.00050564,0.4680,336.2679,178.9368,23.3032,0,U,56564,999,1158,0,-.268E-5,0
NVS-01 (IRNSS-1J),2023-076A,2026-07-07T00:40:27.820128,1.00269146,.0003232,2.1220,243.4663,7.5188,173.6906,0,U,56759,999,1131,0,-.319E-5,0
COSMOS 2569 (703K),2023-114A,2026-07-06T23:05:41.761824,2.13103728,.0009958,65.3132,71.9538,296.3951,63.5663,0,U,57517,999,2268,0,-.19E-6,0
BEIDOU-3 M28 (C50),2023-207A,2026-07-05T00:27:15.772320,1.86229759,.0002708,55.7683,61.7016,358.6416,1.4251,0,U,58654,999,1717,0,-.39E-6,0
BEIDOU-3 M26 (C48),2023-207B,2026-07-06T23:08:31.365024,1.86229712,.0002296,55.7724,61.6226,323.9570,36.0904,0,U,58655,999,1719,0,-.44E-6,0
