COSMOS 2534 [GLONASS-M] 
1 44299U 19030A   26187.95316966  .00000117  00000+0  00000+0 0  9997
2 44299  64.3703 191.9507 0013578 275.0853 267.8570  2.13102353 55341
BEIDOU-3 IGSO-2         
1 44337U 19035A   26187.81240304 -.00000075  00000+0  00000+0 0  9996
2 44337  55.2502 158.6905 0039670 216.4592 321.0694  1.00260595 25864
NAVSTAR 78 (USA 293)    
1 44506U 19056A   26187.84559654 -.00000070  00000+0  00000+0 0  9996
2 44506  55.6268 330.3626 0063060 197.9974 344.1800  2.00570005 50461
BEIDOU-3 M24            
1 44542U 19061A   26188.10973589  .00000118  00000+0  00000+0 0  9991
2 44542  54.3974 182.0557 0008559 359.0397   0.9657  1.86229378 46164
BEIDOU-3 M23            
1 44543U 19061B   26187.27402068  .00000112  00000+0  00000+0 0  9992
2 44543  54.3960 182.0526 0005864 339.2587  91.9188  1.86227560 46152
EUTELSAT 5 WEST B       
1 44624U 19067A   26188.17683735 -.00000027  00000+0  00000+0 0  9996
2 44624   0.0658 339.5785 0003185 127.5317 236.6958  1.00271374 24633
BEIDOU-3 M22            
1 44793U 19078A   26186.33900275 -.00000058  00000+0  00000+0 0  9996
2 44793  53.9186 299.1896 0005914  49.8831 310.1966  1.86227646 44980
BEIDOU-3 M21            
1 44794U 19078B   26186.47887781 -.00000058  00000+0  00000+0 0  9998
2 44794  53.8912 299.1453 0003864  48.4464 311.6147  1.86228113 44993
COSMOS 2544 [GLONASS-M] 
1 44850U 19088A   26186.33054103 -.00000011  00000+0  00000+0 0  9990
2 44850  65.5747  73.1255 0012613 256.2625 103.6636  2.13103225 51102
BEIDOU-3 M19            
1 44864U 19090A   26188.06161581 -.00000043  00000+0  00000+0 0  9994
2 44864  56.5756  62.1346 0017091 297.4421 241.2360  1.86231712 44604
BEIDOU-3 M20            
1 44865U 19090B   26187.92858764 -.00000042  00000+0  00000+0 0  9994
2 44865  56.5768  62.1737 0014943 312.1641 226.9103  1.86231636 44581
BEIDOU-3 G2             
1 45344U 20017A   26188.16092130 -.00000127  00000+0  00000+0 0  9996
2 45344   2.9021  47.6179 0002438  52.3134 323.2138  1.00270752 23466
COSMOS 2545 [GLONASS-M] 
1 45358U 20018A   26187.93326955 -.00000048  00000+0  00000+0 0  9993
2 45358  64.3422 311.7252 0009081 229.8203 130.1142  2.13102817 49081
BEIDOU-3 G3             
1 45807U 20040A   26188.09563059 -.00000340  00000+0  00000+0 0  9998
2 45807   2.4931  67.4778 0002142 334.3531  28.2040  1.00268873 22279
NAVSTAR 79 (USA 304)    
1 45854U 20041A   26187.18030691 -.00000055  00000+0  00000+0 0  9994
2 45854  56.6823  28.2076 0064724 204.5515 154.8185  2.00558250 44410
GALAXY 30 (G-30)        
1 46114U 20056C   26187.76375412  .00000052  00000+0  00000+0 0  9993
2 46114   0.0206  38.7570 0002186  67.2773 328.6685  1.00270907 21484
COSMOS 2547 [GLONASS-K] 
1 46805U 20075A   26187.65368286  .00000115  00000+0  00000+0 0  9990
2 46805  64.6011 191.8258 0009443 239.8670 120.0683  2.13100180 44321
NAVSTAR 80 (USA 309)    
1 46826U 20078A   26187.65524564  .00000093  00000+0  00000+0 0  9994
2 46826  53.9784 209.9892 0074292 207.6007 111.6968  2.00564948 41891
NAVSTAR 81 (USA 319)    
1 48859U 21054A   26187.94358801 -.00000071  00000+0  00000+0 0  9995
2 48859  55.1641 331.6665 0026177 228.4644 125.3794  2.00567735 37142
QZS-1R (MICHIBIKI-1R)   
1 49336U 21096A   26186.60108073 -.00000258  00000+0  00000+0 0  9995
2 49336  37.4964  79.3119 0755511 272.0883 281.1819  1.00249302 17193
GSAT0223 (GALILEO 27)   
1 49809U 21116A   26184.42092904 -.00000075  00000+0  00000+0 0  9993
2 49809  57.1558 341.2375 0001787 186.7549 176.0990  1.70476367 28464
GSAT0224 (GALILEO 28)   
1 49810U 21116B   26188.04673317 -.00000071  00000+0  00000+0 0  9996
2 49810  57.1547 341.1388 0001638 175.8002   4.9246  1.70476191 28542
COSMOS 2557 [GLONASS-K] 
1 52984U 22075A   26186.87934661 -.00000046  00000+0  00000+0 0  9990
2 52984  64.2868 313.8271 0010592 272.6980  87.1931  2.13102507 31116
COSMOS 2559 [GLONASS-K] 
1 54031U 22130A   26187.16828881 -.00000047  00000+0  00000+0 0  9997
2 54031  64.2589 313.8996 0012939 180.0995 179.9129  2.13101697 29092
COSMOS 2564 [GLONASS-M] 
1 54377U 22161A   26187.94997608  .00000118  00000+0  00000+0 0  9992
2 54377  64.7434 192.0556 0012256 225.0919 134.8385  2.13102000 28054
NAVSTAR 82 (USA 343)    
1 55268U 23009A   26188.14393455  .00000076  00000+0  00000+0 0  9990
2 55268  55.1244 147.7348 0006222 319.7654 217.2991  2.00570128 25643
BEIDOU-3 G4             
1 56564U 23066A   26187.31732966 -.00000268  00000+0  00000+0 0  9999
2 56564   0.4680 336.2679 0005056 178.9368  23.3032  1.00266978 11587
NVS-01 (IRNSS-1J)       
1 56759U 23076A   26188.02809977 -.00000319  00000+0  00000+0 0  9999
2 56759   2.1220 243.4663 0003232   7.5188 173.6906  1.00269146 11315
COSMOS 2569 [GLONASS-K2]
1 57517U 23114A   26187.96228891 -.00000019  00000+0  00000+0 0  9994
2 57517  65.3132  71.9538 0009958 296.3951  63.5663  2.13103728 22680
BEIDOU-3 M28            
1 58654U 23207A   26186.01893255 -.00000039  00000+0  00000+0 0  9999
2 58654  55.7683  61.7016 0002708 358.6416   1.4251  1.86229759 17173
BEIDOU-3 M26            
1 58655U 23207B   26187.96425191 -.00000044  00000+0  00000+0 0  9991
2 58655  55.7724  61.6226 0002296 323.9570  36.0904  1.86229712 17190
